NORAD_CAT_ID,OBJECT_NAME,OBJECT_TYPE,EPOCH,MEAN_MOTION,ECCENTRICITY,INCLINATION,RA_OF_ASC_NODE,ARG_OF_PERICENTER,MEAN_ANOMALY,BSTAR,MEAN_MOTION_DOT,MEAN_MOTION_DDOT,TLE_LINE0,TLE_LINE1,TLE_LINE2,SEMIMAJOR_AXIS,PERIOD,APOGEE,PERIGEE,DECAYED
49418.0,STARLINK-3111,PAYLOAD,2022-04-15 14:00:01,15.08815407,0.0002527,53.2155,142.1799,22.463,196.817,0.0030247,0.00048148,0.0,0 STARLINK-3111,1 49418U 21104L   22105.58334491  .00048148  00000-0  30247-2 0  9994,2 49418  53.2155 142.1799 0002527  22.4630 196.8170 15.08815407  3605,6917.956,95.439,541.569,538.072,0.0
49418.0,STARLINK-3111,PAYLOAD,2022-04-15 22:00:00,15.08814759,0.0002307,53.2154,140.6816,24.222,206.6399,0.0023353,0.00037049,0.0,0 STARLINK-3111,1 49418U 21104L   22105.91667824  .00037049  00000-0  23353-2 0  9998,2 49418  53.2154 140.6816 0002307  24.2220 206.6399 15.08814759 24782,6917.958000000001,95.439,541.419,538.227,0.0
49418.0,STARLINK-3111,PAYLOAD,2022-04-16 14:00:01,15.08797188,0.000254,53.2149,137.6906,21.0512,232.9715,0.0019318,0.00030555,0.0,0 STARLINK-3111,1 49418U 21104L   22106.58334491  .00030555  00000-0  19318-2 0  9994,2 49418  53.2149 137.6906 0002540  21.0512 232.9715 15.08797188 24881,6918.011,95.44,541.633,538.119,0.0
49418.0,STARLINK-3111,PAYLOAD,2022-04-16 22:00:01,15.08792615,0.0002354,53.2148,136.1922,23.6505,242.001,0.0026535,0.00042141,0.0,0 STARLINK-3111,1 49418U 21104L   22106.91668981  .00042141  00000-0  26535-2 0  9998,2 49418  53.2148 136.1922 0002354  23.6505 242.0010 15.08792615  3590,6918.025,95.441,541.519,538.262,0.0
49418.0,STARLINK-3111,PAYLOAD,2022-04-17 06:00:00,15.088316,0.0002482,53.2149,134.6968,24.9292,252.2124,-0.0014669,-0.00023554,0.0,0 STARLINK-3111,1 49418U 21104L   22107.25001157 -.00023554  00000-0 -14669-2 0  9996,2 49418  53.2149 134.6968 0002482  24.9292 252.2124 15.08831600 24986,6917.906,95.438,541.488,538.054,0.0
49418.0,STARLINK-3111,PAYLOAD,2022-04-17 14:00:01,15.08815726,0.0002646,53.2146,133.201,22.7817,265.9336,0.0014119999999999,0.00022241,0.0,0 STARLINK-3111,1 49418U 21104L   22107.58334491  .00022241  00000-0  14120-2 0  9994,2 49418  53.2146 133.2010 0002646  22.7817 265.9336 15.08815726  3565,6917.955,95.439,541.65,537.989,0.0
49418.0,STARLINK-3111,PAYLOAD,2022-04-17 22:00:00,15.08803982,0.000247,53.2149,131.7027,25.7768,274.5225,0.0029959,0.00047669,0.0,0 STARLINK-3111,1 49418U 21104L   22107.91667824  .00047669  00000-0  29959-2 0  9997,2 49418  53.2149 131.7027 0002470  25.7768 274.5225 15.08803982  3566,6917.99,95.44,541.564,538.1469999999998,0.0
49418.0,STARLINK-3111,PAYLOAD,2022-04-18 06:00:00,15.08846258,0.0002626,53.2151,130.2073,26.7064,285.1637,-0.0014112,-0.00022683,0.0,0 STARLINK-3111,1 49418U 21104L   22108.25001157 -.00022683  00000-0 -14112-2 0  9992,2 49418  53.2151 130.2073 0002626  26.7064 285.1637 15.08846258 25132,6917.861,95.437,541.543,537.91,0.0
49418.0,STARLINK-3111,PAYLOAD,2022-04-18 14:00:01,15.08834816,0.0002768,53.215,128.7114,24.73,298.7282,0.00075369,0.00011726,0.0,0 STARLINK-3111,1 49418U 21104L   22108.58334491  .00011726  00000-0  75369-3 0  9994,2 49418  53.2150 128.7114 0002768  24.7300 298.7282 15.08834816  3596,6917.896,95.438,541.6759999999998,537.846,0.0
49418.0,STARLINK-3111,PAYLOAD,2022-04-18 22:00:00,15.08818463,0.0002579,53.2154,127.2132,28.1314,306.9312,0.0032622,0.00051984,0.0,0 STARLINK-3111,1 49418U 21104L   22108.91667824  .00051984  00000-0  32622-2 0  9994,2 49418  53.2154 127.2132 0002579  28.1314 306.9312 15.08818463 25238,6917.946,95.439,541.595,538.0269999999998,0.0
49418.0,STARLINK-3111,PAYLOAD,2022-04-19 14:00:01,15.08855896,0.000286,53.2156,124.2218,26.922,331.3371,0.00025554,3.783e-05,0.0,0 STARLINK-3111,1 49418U 21104L   22109.58334491  .00003783  00000-0  25554-3 0  9990,2 49418  53.2156 124.2218 0002860  26.9220 331.3371 15.08855896 25336,6917.831999999999,95.437,541.675,537.7180000000002,0.0
49418.0,STARLINK-3111,PAYLOAD,2022-04-20 14:00:01,15.08846202,0.0002863,53.2162,119.7325,26.7951,6.3111,-0.00032216,-5.413e-05,0.0,0 STARLINK-3111,1 49418U 21104L   22110.58334491 -.00005413  00000-0 -32216-3 0  9999,2 49418  53.2162 119.7325 0002863  26.7951   6.3111 15.08846202  3601,6917.861,95.437,541.707,537.746,0.0
49418.0,STARLINK-3111,PAYLOAD,2022-04-20 22:00:00,15.08823588,0.0002626,53.2166,118.2345,30.404,14.3136,0.0031869,0.00050776,0.0,0 STARLINK-3111,1 49418U 21104L   22110.91667824  .00050776  00000-0  31869-2 0  9997,2 49418  53.2166 118.2345 0002626  30.4040  14.3136 15.08823588 25544,6917.931,95.439,541.612,537.979,0.0
49418.0,STARLINK-3111,PAYLOAD,2022-04-21 14:00:01,15.08874903,0.0002853,53.2165,115.2433,28.3445,39.5754,-0.0024279,-0.00038761,0.0,0 STARLINK-3111,1 49418U 21104L   22111.58334491 -.00038761  00000-0 -24279-2 0  9991,2 49418  53.2165 115.2433 0002853  28.3445  39.5754 15.08874903  3576,6917.774,95.435,541.612,537.665,0.0
49418.0,STARLINK-3111,PAYLOAD,2022-04-21 22:00:00,15.08819876,0.0002586,53.2167,113.7456,30.9037,48.646,0.0024331,0.00038627,0.0,0 STARLINK-3111,1 49418U 21104L   22111.91667824  .00038627  00000-0  24331-2 0  9995,2 49418  53.2167 113.7456 0002586  30.9037  48.6460 15.08819876  3590,6917.941999999999,95.439,541.596,538.018,0.0
49418.0,STARLINK-3111,PAYLOAD,2022-04-22 14:00:01,15.08856955,0.0002816,53.2164,110.7545,29.178,73.5519,-0.0011888,-0.00019169,0.0,0 STARLINK-3111,1 49418U 21104L   22112.58334491 -.00019169  00000-0 -11888-2 0  9995,2 49418  53.2164 110.7545 0002816  29.1780  73.5519 15.08856955  3618,6917.829000000002,95.436,541.6419999999998,537.746,0.0
49418.0,STARLINK-3111,PAYLOAD,2022-04-22 22:00:00,15.08831213,0.0002578,53.2165,109.2567,32.1681,82.1751,0.00037013,5.606e-05,0.0,0 STARLINK-3111,1 49418U 21104L   22112.91667824  .00005606  00000-0  37013-3 0  9999,2 49418  53.2165 109.2567 0002578  32.1681  82.1751 15.08831213 25848,6917.906999999997,95.438,541.556,537.989,0.0
49418.0,STARLINK-3111,PAYLOAD,2022-04-23 14:00:01,15.08846649,0.0002785,53.2161,106.2655,30.1764,107.3317,-0.0011071,-0.00017869,0.0,0 STARLINK-3111,1 49418U 21104L   22113.58334491 -.00017869  00000-0 -11071-2 0  9995,2 49418  53.2161 106.2655 0002785  30.1764 107.3317 15.08846649  3561,6917.86,95.437,541.6519999999998,537.798,0.0
49418.0,STARLINK-3111,PAYLOAD,2022-04-24 06:00:00,15.08848806,0.0002837,53.2161,103.2733,32.8638,127.8402,-0.00033239,-5.576e-05,0.0,0 STARLINK-3111,1 49418U 21104L   22114.25001157 -.00005576  00000-0 -33239-3 0  9993,2 49418  53.2161 103.2733 0002837  32.8638 127.8402 15.08848806 26049,6917.853,95.437,541.681,537.756,0.0
49418.0,STARLINK-3111,PAYLOAD,2022-04-24 14:00:01,15.08881856,0.000281,53.2159,101.7763,31.6696,140.6342,-0.0044017,-0.00069749,0.0,0 STARLINK-3111,1 49418U 21104L   22114.58334491 -.00069749  00000-0 -44017-2 0  9996,2 49418  53.2159 101.7763 0002810  31.6696 140.6342 15.08881856  3609,6917.752,95.435,541.561,537.674,0.0
49418.0,STARLINK-3111,PAYLOAD,2022-04-25 14:00:01,15.08841629,0.0002785,53.216,97.2868,30.5477,176.5533,-0.0020694,-0.00033076,0.0,0 STARLINK-3111,1 49418U 21104L   22115.58334491 -.00033076  00000-0 -20694-2 0  9996,2 49418  53.2160  97.2868 0002785  30.5477 176.5533 15.08841629 26241,6917.875,95.437,541.6669999999998,537.814,0.0
49418.0,STARLINK-3111,PAYLOAD,2022-04-25 22:00:00,15.08820464,0.0002676,53.2162,95.7893,34.7069,183.9768,0.0020632,0.00032684,0.0,0 STARLINK-3111,1 49418U 21104L   22115.91667824  .00032684  00000-0  20632-2 0  9996,2 49418  53.2162  95.7893 0002676  34.7069 183.9768 15.08820464  3618,6917.94,95.439,541.656,537.9540000000002,0.0
49418.0,STARLINK-3111,PAYLOAD,2022-04-26 06:00:00,15.08833867,0.0002915,53.2163,94.2946,32.9095,197.3651,0.00070087,0.00010882,0.0,0 STARLINK-3111,1 49418U 21104L   22116.25001157  .00010882  00000-0  70087-3 0  9991,2 49418  53.2163  94.2946 0002915  32.9095 197.3651 15.08833867 26343,6917.899,95.438,541.781,537.748,0.0
49418.0,STARLINK-3111,PAYLOAD,2022-04-26 14:00:01,15.08876644,0.0002825,53.2164,92.7973,32.4232,209.5003,-0.0039702,-0.0006299,0.0,0 STARLINK-3111,1 49418U 21104L   22116.58335648 -.00062990  00000-0 -39702-2 0  9999,2 49418  53.2164  92.7973 0002825  32.4232 209.5003 15.08876644  3594,6917.768,95.435,541.5880000000002,537.679,0.0
49418.0,STARLINK-3111,PAYLOAD,2022-04-26 22:00:00,15.08823062,0.000269,53.2168,91.2999,35.2478,218.2246,0.0019484,0.00030844,0.0,0 STARLINK-3111,1 49418U 21104L   22116.91667824  .00030844  00000-0  19484-2 0  9996,2 49418  53.2168  91.2999 0002690  35.2478 218.2246 15.08823062  3562,6917.932,95.439,541.658,537.936,0.0
49418.0,STARLINK-3111,PAYLOAD,2022-04-27 06:00:00,15.08834311,0.0002913,53.2168,89.8052,32.8875,232.1751,0.00056641,8.737e-05,0.0,0 STARLINK-3111,1 49418U 21104L   22117.25001157  .00008737  00000-0  56641-3 0  9998,2 49418  53.2168  89.8052 0002913  32.8875 232.1751 15.08834311 26499,6917.898,95.438,541.778,537.748,0.0
49418.0,STARLINK-3111,PAYLOAD,2022-04-27 14:00:01,15.08855995,0.0002791,53.2168,88.3078,32.1389,244.5742,-0.0035234,-0.00055957,0.0,0 STARLINK-3111,1 49418U 21104L   22117.58335648 -.00055957  00000-0 -35234-2 0  9991,2 49418  53.2168  88.3078 0002791  32.1389 244.5742 15.08855995  3592,6917.831,95.437,541.627,537.766,0.0
49418.0,STARLINK-3111,PAYLOAD,2022-04-28 14:00:01,15.08881844,0.0002704,53.2172,83.8184,32.5717,278.8748,-0.0039066,-0.00062003,0.0,0 STARLINK-3111,1 49418U 21104L   22118.58334491 -.00062003  00000-0 -39066-2 0  9994,2 49418  53.2172  83.8184 0002704  32.5717 278.8748 15.08881844 26692,6917.752,95.435,541.488,537.747,0.0
49418.0,STARLINK-3111,PAYLOAD,2022-04-29 06:00:00,15.08835484,0.0002686,53.2175,80.8268,30.6119,304.0664,-0.0012881,-0.00020729,0.0,0 STARLINK-3111,1 49418U 21104L   22119.25001157 -.00020729  00000-0 -12881-2 0  9994,2 49418  53.2175  80.8268 0002686  30.6119 304.0664 15.08835484 26798,6917.894,95.438,541.617,537.901,0.0
